CCSDS_OMM_VERS = 2.0
CREATION_DATE  = 
ORIGINATOR     = 

OBJECT_NAME    = DELTA 2 R/B(1)
OBJECT_ID      = 1990-008B
CENTER_NAME    = EARTH
REF_FRAME      = TEME
TIME_SYSTEM    = UTC
MEAN_ELEMENT_THEORY = SGP/SGP4

EPOCH          = 2026-01-27T13:19:08.151744
MEAN_MOTION    = 15.50274110
ECCENTRICITY   = .00996708
INCLINATION    = 35.6054
RA_OF_ASC_NODE = 83.6431
ARG_OF_PERICENTER = 237.3073
MEAN_ANOMALY   = 121.8017

EPHEMERIS_TYPE = 0
CLASSIFICATION_TYPE = U
NORAD_CAT_ID   = 20453
ELEMENT_SET_NO = 999
REV_AT_EPOCH   = 91973
BSTAR          = .10291666E-2
MEAN_MOTION_DOT = .74592E-3
MEAN_MOTION_DDOT = 0

CCSDS_OMM_VERS = 2.0
CREATION_DATE  = 
ORIGINATOR     = 

OBJECT_NAME    = COSMOS 2058
OBJECT_ID      = 1990-010A
CENTER_NAME    = EARTH
REF_FRAME      = TEME
TIME_SYSTEM    = UTC
MEAN_ELEMENT_THEORY = SGP/SGP4

EPOCH          = 2026-01-27T14:14:15.417600
MEAN_MOTION    = 15.10941344
ECCENTRICITY   = .00117246
INCLINATION    = 82.4653
RA_OF_ASC_NODE = 87.9137
ARG_OF_PERICENTER = 111.7179
MEAN_ANOMALY   = 248.5300

EPHEMERIS_TYPE = 0
CLASSIFICATION_TYPE = U
NORAD_CAT_ID   = 20465
ELEMENT_SET_NO = 999
REV_AT_EPOCH   = 93603
BSTAR          = .32113152E-3
MEAN_MOTION_DOT = .5389E-4
MEAN_MOTION_DDOT = 0

CCSDS_OMM_VERS = 2.0
CREATION_DATE  = 
ORIGINATOR     = 

OBJECT_NAME    = SL-14 R/B
OBJECT_ID      = 1990-010B
CENTER_NAME    = EARTH
REF_FRAME      = TEME
TIME_SYSTEM    = UTC
MEAN_ELEMENT_THEORY = SGP/SGP4

EPOCH          = 2026-01-27T11:26:13.748064
MEAN_MOTION    = 14.83528510
ECCENTRICITY   = .00213893
INCLINATION    = 82.5043
RA_OF_ASC_NODE = 306.0979
ARG_OF_PERICENTER = 76.6281
MEAN_ANOMALY   = 283.7317

EPHEMERIS_TYPE = 0
CLASSIFICATION_TYPE = U
NORAD_CAT_ID   = 20466
ELEMENT_SET_NO = 999
REV_AT_EPOCH   = 92237
BSTAR          = .97571514E-4
MEAN_MOTION_DOT = .83E-5
MEAN_MOTION_DDOT = 0

CCSDS_OMM_VERS = 2.0
CREATION_DATE  = 
ORIGINATOR     = 

OBJECT_NAME    = SL-14 R/B
OBJECT_ID      = 1990-018B
CENTER_NAME    = EARTH
REF_FRAME      = TEME
TIME_SYSTEM    = UTC
MEAN_ELEMENT_THEORY = SGP/SGP4

EPOCH          = 2026-01-27T14:09:01.714752
MEAN_MOTION    = 14.82102212
ECCENTRICITY   = .00152714
INCLINATION    = 82.5196
RA_OF_ASC_NODE = 261.5141
ARG_OF_PERICENTER = 223.8137
MEAN_ANOMALY   = 136.1867

EPHEMERIS_TYPE = 0
CLASSIFICATION_TYPE = U
NORAD_CAT_ID   = 20511
ELEMENT_SET_NO = 999
REV_AT_EPOCH   = 91649
BSTAR          = .78774488E-4
MEAN_MOTION_DOT = .65E-5
MEAN_MOTION_DDOT = 0

CCSDS_OMM_VERS = 2.0
CREATION_DATE  = 
ORIGINATOR     = 

OBJECT_NAME    = HST
OBJECT_ID      = 1990-037B
CENTER_NAME    = EARTH
REF_FRAME      = TEME
TIME_SYSTEM    = UTC
MEAN_ELEMENT_THEORY = SGP/SGP4

EPOCH          = 2026-01-26T21:53:44.388384
MEAN_MOTION    = 15.28781740
ECCENTRICITY   = .00017989
INCLINATION    = 28.4682
RA_OF_ASC_NODE = 324.8514
ARG_OF_PERICENTER = 15.4500
MEAN_ANOMALY   = 344.6150

EPHEMERIS_TYPE = 0
CLASSIFICATION_TYPE = U
NORAD_CAT_ID   = 20580
ELEMENT_SET_NO = 999
REV_AT_EPOCH   = 76691
BSTAR          = .38165572E-3
MEAN_MOTION_DOT = .11225E-3
MEAN_MOTION_DDOT = 0

CCSDS_OMM_VERS = 2.0
CREATION_DATE  = 
ORIGINATOR     = 

OBJECT_NAME    = SL-16 R/B
OBJECT_ID      = 1990-046B
CENTER_NAME    = EARTH
REF_FRAME      = TEME
TIME_SYSTEM    = UTC
MEAN_ELEMENT_THEORY = SGP/SGP4

EPOCH          = 2026-01-27T09:54:53.954208
MEAN_MOTION    = 14.15006684
ECCENTRICITY   = .00141739
INCLINATION    = 70.9993
RA_OF_ASC_NODE = 24.5995
ARG_OF_PERICENTER = 356.7908
MEAN_ANOMALY   = 3.3121

EPHEMERIS_TYPE = 0
CLASSIFICATION_TYPE = U
NORAD_CAT_ID   = 20625
ELEMENT_SET_NO = 999
REV_AT_EPOCH   = 84255
BSTAR          = -.83853272E-4
MEAN_MOTION_DOT = -.21E-5
MEAN_MOTION_DDOT = 0

CCSDS_OMM_VERS = 2.0
CREATION_DATE  = 
ORIGINATOR     = 

OBJECT_NAME    = COSMOS 2084
OBJECT_ID      = 1990-055A
CENTER_NAME    = EARTH
REF_FRAME      = TEME
TIME_SYSTEM    = UTC
MEAN_ELEMENT_THEORY = SGP/SGP4

EPOCH          = 2026-01-27T12:59:21.302592
MEAN_MOTION    = 15.05373504
ECCENTRICITY   = .00237503
INCLINATION    = 62.7905
RA_OF_ASC_NODE = 115.8932
ARG_OF_PERICENTER = 181.7028
MEAN_ANOMALY   = 178.3996

EPHEMERIS_TYPE = 0
CLASSIFICATION_TYPE = U
NORAD_CAT_ID   = 20663
ELEMENT_SET_NO = 999
REV_AT_EPOCH   = 93012
BSTAR          = .33095044E-3
MEAN_MOTION_DOT = .4595E-4
MEAN_MOTION_DDOT = 0

CCSDS_OMM_VERS = 2.0
CREATION_DATE  = 
ORIGINATOR     = 

OBJECT_NAME    = SL-6 R/B(2)
OBJECT_ID      = 1990-055D
CENTER_NAME    = EARTH
REF_FRAME      = TEME
TIME_SYSTEM    = UTC
MEAN_ELEMENT_THEORY = SGP/SGP4

EPOCH          = 2026-01-27T09:38:34.310400
MEAN_MOTION    = 15.03351534
ECCENTRICITY   = .00187632
INCLINATION    = 62.7841
RA_OF_ASC_NODE = 34.2311
ARG_OF_PERICENTER = 334.2485
MEAN_ANOMALY   = 25.7678

EPHEMERIS_TYPE = 0
CLASSIFICATION_TYPE = U
NORAD_CAT_ID   = 20666
ELEMENT_SET_NO = 999
REV_AT_EPOCH   = 93198
BSTAR          = .31350065E-3
MEAN_MOTION_DOT = .4097E-4
MEAN_MOTION_DDOT = 0

CCSDS_OMM_VERS = 2.0
CREATION_DATE  = 
ORIGINATOR     = 

OBJECT_NAME    = SL-8 R/B
OBJECT_ID      = 1990-078B
CENTER_NAME    = EARTH
REF_FRAME      = TEME
TIME_SYSTEM    = UTC
MEAN_ELEMENT_THEORY = SGP/SGP4

EPOCH          = 2026-01-27T03:52:48.415008
MEAN_MOTION    = 14.87626474
ECCENTRICITY   = .0368005
INCLINATION    = 82.9045
RA_OF_ASC_NODE = 288.6126
ARG_OF_PERICENTER = 153.1104
MEAN_ANOMALY   = 208.9731

EPHEMERIS_TYPE = 0
CLASSIFICATION_TYPE = U
NORAD_CAT_ID   = 20775
ELEMENT_SET_NO = 999
REV_AT_EPOCH   = 80312
BSTAR          = .69859E-3
MEAN_MOTION_DOT = .2341E-3
MEAN_MOTION_DDOT = 0

CCSDS_OMM_VERS = 2.0
CREATION_DATE  = 
ORIGINATOR     = 

OBJECT_NAME    = SL-8 R/B
OBJECT_ID      = 1991-006B
CENTER_NAME    = EARTH
REF_FRAME      = TEME
TIME_SYSTEM    = UTC
MEAN_ELEMENT_THEORY = SGP/SGP4

EPOCH          = 2026-01-27T12:05:10.227840
MEAN_MOTION    = 13.77491969
ECCENTRICITY   = .00231373
INCLINATION    = 82.9413
RA_OF_ASC_NODE = 200.6697
ARG_OF_PERICENTER = 148.0155
MEAN_ANOMALY   = 231.6503

EPHEMERIS_TYPE = 0
CLASSIFICATION_TYPE = U
NORAD_CAT_ID   = 21088
ELEMENT_SET_NO = 999
REV_AT_EPOCH   = 75840
BSTAR          = .10146073E-4
MEAN_MOTION_DOT = .26E-6
MEAN_MOTION_DDOT = 0

CCSDS_OMM_VERS = 2.0
CREATION_DATE  = 
ORIGINATOR     = 

OBJECT_NAME    = OKEAN-3
OBJECT_ID      = 1991-039A
CENTER_NAME    = EARTH
REF_FRAME      = TEME
TIME_SYSTEM    = UTC
MEAN_ELEMENT_THEORY = SGP/SGP4

EPOCH          = 2026-01-27T10:43:58.969056
MEAN_MOTION    = 15.04465807
ECCENTRICITY   = .00159091
INCLINATION    = 82.5171
RA_OF_ASC_NODE = 16.7870
ARG_OF_PERICENTER = 108.4237
MEAN_ANOMALY   = 251.8721

EPHEMERIS_TYPE = 0
CLASSIFICATION_TYPE = U
NORAD_CAT_ID   = 21397
ELEMENT_SET_NO = 999
REV_AT_EPOCH   = 85883
BSTAR          = .42823194E-3
MEAN_MOTION_DOT = .6033E-4
MEAN_MOTION_DDOT = 0

CCSDS_OMM_VERS = 2.0
CREATION_DATE  = 
ORIGINATOR     = 

OBJECT_NAME    = COSMOS 2151
OBJECT_ID      = 1991-042A
CENTER_NAME    = EARTH
REF_FRAME      = TEME
TIME_SYSTEM    = UTC
MEAN_ELEMENT_THEORY = SGP/SGP4

EPOCH          = 2026-01-27T14:11:47.809248
MEAN_MOTION    = 14.99929329
ECCENTRICITY   = .00122102
INCLINATION    = 82.4976
RA_OF_ASC_NODE = 123.3140
ARG_OF_PERICENTER = 191.7322
MEAN_ANOMALY   = 168.3619

EPHEMERIS_TYPE = 0
CLASSIFICATION_TYPE = U
NORAD_CAT_ID   = 21422
ELEMENT_SET_NO = 999
REV_AT_EPOCH   = 85703
BSTAR          = .28727324E-3
MEAN_MOTION_DOT = .3596E-4
MEAN_MOTION_DDOT = 0

