DELTA 2 R/B(1)          
1 20453U 90008B   26027.55495546  .00074592  00000+0  10292-2 0  9993
2 20453  35.6054  83.6431 0099670 237.3073 121.8017 15.50274110919735
COSMOS 2058             
1 20465U 90010A   26027.59323400  .00005389  00000+0  32113-3 0  9997
2 20465  82.4653  87.9137 0011724 111.7179 248.5300 15.10941344936039
SL-14 R/B               
1 20466U 90010B   26027.47654801  .00000830  00000+0  97572-4 0  9994
2 20466  82.5043 306.0979 0021389  76.6281 283.7317 14.83528510922370
SL-14 R/B               
1 20511U 90018B   26027.58960318  .00000650  00000+0  78774-4 0  9991
2 20511  82.5196 261.5141 0015271 223.8137 136.1867 14.82102212916498
HST                     
1 20580U 90037B   26026.91231931  .00011225  00000+0  38166-3 0  9996
2 20580  28.4682 324.8514 0001798  15.4500 344.6150 15.28781740766919
SL-16 R/B               
1 20625U 90046B   26027.41312447 -.00000210  00000+0 -83853-4 0  9992
2 20625  70.9993  24.5995 0014173 356.7908   3.3121 14.15006684842551
COSMOS 2084             
1 20663U 90055A   26027.54121878  .00004595  00000+0  33095-3 0  9994
2 20663  62.7905 115.8932 0023750 181.7028 178.3996 15.05373504930122
SL-6 R/B(2)             
1 20666U 90055D   26027.40178600  .00004097  00000+0  31350-3 0  9996
2 20666  62.7841  34.2311 0018763 334.2485  25.7678 15.03351534931983
SL-8 R/B                
1 20775U 90078B   26027.16167147  .00023410  00000+0  69859-3 0  9994
2 20775  82.9045 288.6126 0368005 153.1104 208.9731 14.87626474803124
SL-8 R/B                
1 21088U 91006B   26027.50359060  .00000026  00000+0  10146-4 0  9993
2 21088  82.9413 200.6697 0023137 148.0155 231.6503 13.77491969758408
OKEAN-3                 
1 21397U 91039A   26027.44721029  .00006033  00000+0  42823-3 0  9993
2 21397  82.5171  16.7870 0015909 108.4237 251.8721 15.04465807858834
COSMOS 2151             
1 21422U 91042A   26027.59152557  .00003596  00000+0  28727-3 0  9994
2 21422  82.4976 123.3140 0012210 191.7322 168.3619 14.99929329857038
